NORAD_CAT_ID,OBJECT_NAME,OBJECT_TYPE,EPOCH,MEAN_MOTION,ECCENTRICITY,INCLINATION,RA_OF_ASC_NODE,ARG_OF_PERICENTER,MEAN_ANOMALY,BSTAR,MEAN_MOTION_DOT,MEAN_MOTION_DDOT,TLE_LINE0,TLE_LINE1,TLE_LINE2,SEMIMAJOR_AXIS,PERIOD,APOGEE,PERIGEE,DECAYED
51740.0,STARLINK-3500,PAYLOAD,2023-06-05 07:46:05,15.0883984,0.0001084,53.2157,165.8495,81.1925,278.919,5.7932e-05,6.34e-06,0.0,0 STARLINK-3500,1 51740U 22016AC  23156.32367149  .00000634  00000-0  57932-4 0  9993,2 51740  53.2157 165.8495 0001084  81.1925 278.9190 15.08839840 71335,6917.881,95.438,540.496,538.996,0.0
51740.0,STARLINK-3500,PAYLOAD,2023-06-05 17:18:24,15.08836436,0.0001087,53.2156,164.0652,79.8102,280.3012,3.3927e-05,2.52e-06,0.0,0 STARLINK-3500,1 51740U 22016AC  23156.72111501  .00000252  00000-0  33927-4 0  9990,2 51740  53.2156 164.0652 0001087  79.8102 280.3012 15.08836436 71398,6917.891,95.438,540.508,539.004,0.0
51740.0,STARLINK-3500,PAYLOAD,2023-06-06 04:26:06,15.08833985,0.0001124,53.2161,161.9841,83.8919,276.2201,1.66e-05,-2.4e-07,0.0,0 STARLINK-3500,1 51740U 22016AC  23157.18479855 -.00000024  00000-0  16600-4 0  9997,2 51740  53.2161 161.9841 0001124  83.8919 276.2201 15.08833985 72529,6917.899,95.438,540.541,538.986,0.0
51740.0,STARLINK-3500,PAYLOAD,2023-06-06 09:12:15,15.08835313,0.0001134,53.216,161.092,82.7232,277.3889,2.5782e-05,1.22e-06,0.0,0 STARLINK-3500,1 51740U 22016AC  23157.38351799  .00000122  00000-0  25782-4 0  9994,2 51740  53.2160 161.0920 0001134  82.7232 277.3889 15.08835313 71490,6917.895,95.438,540.544,538.975,0.0
51740.0,STARLINK-3500,PAYLOAD,2023-06-07 09:03:03,15.08837643,0.0001153,53.2161,156.6312,81.6442,278.4681,7.4997e-06,-1.68e-06,0.0,0 STARLINK-3500,1 51740U 22016AC  23158.37711969 -.00000168  00000-0  74997-5 0  9997,2 51740  53.2161 156.6312 0001153  81.6442 278.4681 15.08837643 72703,6917.888,95.438,540.55,538.955,0.0
51740.0,STARLINK-3500,PAYLOAD,2023-06-07 16:59:58,15.08836054,0.0001184,53.2163,155.144,81.1954,278.9172,1.7802e-05,-5e-08,0.0,0 STARLINK-3500,1 51740U 22016AC  23158.70832111 -.00000005  00000-0  17802-4 0  9998,2 51740  53.2163 155.1440 0001184  81.1954 278.9172 15.08836054 71690,6917.892,95.438,540.577,538.938,0.0
51740.0,STARLINK-3500,PAYLOAD,2023-06-08 08:53:50,15.08838451,0.0001128,53.2159,152.1702,81.3397,278.7723,5.9596e-05,6.61e-06,0.0,0 STARLINK-3500,1 51740U 22016AC  23159.37071954  .00000661  00000-0  59596-4 0  9995,2 51740  53.2159 152.1702 0001128  81.3397 278.7723 15.08838451 71798,6917.885,95.438,540.53,538.97,0.0
51740.0,STARLINK-3500,PAYLOAD,2023-06-08 23:12:18,15.08841204,0.0001131,53.2156,149.4941,80.7475,279.3645,8.4144e-05,1.052e-05,0.0,0 STARLINK-3500,1 51740U 22016AC  23159.96687723  .00001052  00000-0  84144-4 0  9999,2 51740  53.2156 149.4941 0001131  80.7475 279.3645 15.08841204 72941,6917.877,95.437,540.524,538.959,0.0
51740.0,STARLINK-3500,PAYLOAD,2023-06-09 05:33:50,15.08843905,0.0001134,53.2156,148.3046,80.5827,279.5293,0.00010064,1.314e-05,0.0,0 STARLINK-3500,1 51740U 22016AC  23160.23183461  .00001314  00000-0  10064-3 0  9991,2 51740  53.2156 148.3046 0001134  80.5827 279.5293 15.08843905 71925,6917.868,95.437,540.518,538.949,0.0
51740.0,STARLINK-3500,PAYLOAD,2023-06-09 16:41:32,15.08842932,0.000113,53.2155,146.223,79.8,280.312,6.8517e-05,8.03e-06,0.0,0 STARLINK-3500,1 51740U 22016AC  23160.69551516  .00000803  00000-0  68517-4 0  9990,2 51740  53.2155 146.2230 0001130  79.8000 280.3120 15.08842932 71991,6917.871,95.437,540.518,538.955,0.0
51740.0,STARLINK-3500,PAYLOAD,2023-06-10 05:24:37,15.08840985,0.0001195,53.2157,143.845,78.9682,281.1445,3.8115e-05,3.19e-06,0.0,0 STARLINK-3500,1 51740U 22016AC  23161.22543739  .00000319  00000-0  38115-4 0  9991,2 51740  53.2157 143.8450 0001195  78.9682 281.1445 15.08840985 73130,6917.877,95.437,540.569,538.916,0.0
51740.0,STARLINK-3500,PAYLOAD,2023-06-10 22:53:52,15.08837183,0.0001252,53.2156,140.5725,87.0942,273.0194,-6.3592e-05,-1.3e-05,0.0,0 STARLINK-3500,1 51740U 22016AC  23161.95408320 -.00001300  00000-0 -63592-4 0  9997,2 51740  53.2156 140.5725 0001252  87.0942 273.0194 15.08837183 73241,6917.889,95.438,540.62,538.888,0.0
51740.0,STARLINK-3500,PAYLOAD,2023-06-11 08:26:11,15.08838434,0.000129,53.216,138.7896,82.3574,277.7564,-2.3468e-05,-6.61e-06,0.0,0 STARLINK-3500,1 51740U 22016AC  23162.35152171 -.00000661  00000-0 -23468-4 0  9999,2 51740  53.2160 138.7896 0001290  82.3574 277.7564 15.08838434 72246,6917.885,95.438,540.643,538.858,0.0
51740.0,STARLINK-3500,PAYLOAD,2023-06-11 21:09:16,15.08838029,0.0001267,53.2161,136.4105,81.3193,278.7943,3.7917e-05,3.16e-06,0.0,0 STARLINK-3500,1 51740U 22016AC  23162.88144022  .00000316  00000-0  37917-4 0  9992,2 51740  53.2161 136.4105 0001267  81.3193 278.7943 15.08838029 72326,6917.886,95.438,540.628,538.875,0.0
51740.0,STARLINK-3500,PAYLOAD,2023-06-12 01:55:25,15.08839507,0.0001268,53.2161,135.5185,81.1698,278.9437,4.7462e-05,4.68e-06,0.0,0 STARLINK-3500,1 51740U 22016AC  23163.08015903  .00000468  00000-0  47462-4 0  9994,2 51740  53.2161 135.5185 0001268  81.1698 278.9437 15.08839507 72358,6917.882,95.438,540.624,538.87,0.0
51740.0,STARLINK-3500,PAYLOAD,2023-06-12 14:38:30,15.08837609,0.0001252,53.216,133.1392,78.5091,281.6042,3.7218e-05,3.04e-06,0.0,0 STARLINK-3500,1 51740U 22016AC  23163.61008087  .00000304  00000-0  37218-4 0  9995,2 51740  53.2160 133.1392 0001252  78.5091 281.6042 15.08837609 73491,6917.888,95.438,540.619,538.887,0.0
51740.0,STARLINK-3500,PAYLOAD,2023-06-12 22:35:27,15.08831158,0.0001389,53.2168,131.6534,81.5627,278.5522,2.1984e-05,6.2e-07,0.0,0 STARLINK-3500,1 51740U 22016AC  23163.94128737  .00000062  00000-0  21984-4 0  9990,2 51740  53.2168 131.6534 0001389  81.5627 278.5522 15.08831158 72489,6917.907,95.438,540.733,538.812,0.0
51740.0,STARLINK-3500,PAYLOAD,2023-06-13 04:56:59,15.08831747,0.0001368,53.2171,130.4641,80.0263,280.0883,2.7608e-05,1.51e-06,0.0,0 STARLINK-3500,1 51740U 22016AC  23164.20624784  .00000151  00000-0  27608-4 0  9991,2 51740  53.2171 130.4641 0001368  80.0263 280.0883 15.08831747 73580,6917.906,95.438,540.717,538.824,0.0
51740.0,STARLINK-3500,PAYLOAD,2023-06-13 06:32:23,15.08831274,0.0001373,53.2168,130.1667,81.2196,278.8952,1.8867e-05,1.2e-07,0.0,0 STARLINK-3500,1 51740U 22016AC  23164.27248873  .00000012  00000-0  18867-4 0  9992,2 51740  53.2168 130.1667 0001373  81.2196 278.8952 15.08831274 72536,6917.907,95.438,540.722,538.822,0.0
51740.0,STARLINK-3500,PAYLOAD,2023-06-14 07:58:33,15.08842864,0.0001831,53.2172,125.4102,98.8136,261.3064,-8.3451e-05,-1.616e-05,0.0,0 STARLINK-3500,1 51740U 22016AC  23165.33232696 -.00001616  00000-0 -83451-4 0  9990,2 51740  53.2172 125.4102 0001831  98.8136 261.3064 15.08842864 73752,6917.872,95.437,541.003,538.47,0.0
51740.0,STARLINK-3500,PAYLOAD,2023-06-15 03:03:11,15.08831834,0.0001203,53.2164,121.84,87.9025,272.2105,2.1653e-05,5.7e-07,0.0,0 STARLINK-3500,1 51740U 22016AC  23166.12721205  .00000057  00000-0  21653-4 0  9999,2 51740  53.2164 121.8400 0001203  87.9025 272.2105 15.08831834 73878,6917.905,95.438,540.603,538.938,0.0
51740.0,STARLINK-3500,PAYLOAD,2023-06-15 06:13:57,15.08832981,0.0001191,53.2162,121.2448,84.0409,276.0719,2.9183e-05,1.77e-06,0.0,0 STARLINK-3500,1 51740U 22016AC  23166.25969175  .00000177  00000-0  29183-4 0  9992,2 51740  53.2162 121.2448 0001191  84.0409 276.0719 15.08832981 72834,6917.902,95.438,540.591,538.943,0.0
51740.0,STARLINK-3500,PAYLOAD,2023-06-16 02:53:57,15.0884154,0.0001106,53.2162,117.3782,93.3018,266.8101,2.5308e-05,1.15e-06,0.0,0 STARLINK-3500,1 51740U 22016AC  23167.12080728  .00000115  00000-0  25308-4 0  9994,2 51740  53.2162 117.3782 0001106  93.3018 266.8101 15.08841540 74022,6917.876,95.437,540.506,538.976,0.0
51740.0,STARLINK-3500,PAYLOAD,2023-06-16 06:04:43,15.0884959,0.0001259,53.2167,116.783,90.4643,269.6494,9.63e-05,1.245e-05,0.0,0 STARLINK-3500,1 51740U 22016AC  23167.25328016  .00001245  00000-0  96300-4 0  9998,2 51740  53.2167 116.7830 0001259  90.4643 269.6494 15.08849590 74046,6917.851,95.437,540.587,538.845,0.0
51740.0,STARLINK-3500,PAYLOAD,2023-06-16 14:01:39,15.08840194,0.0001239,53.2169,115.2941,98.4076,261.7057,5.4294e-05,5.76e-06,0.0,0 STARLINK-3500,1 51740U 22016AC  23167.58448624  .00000576  00000-0  54294-4 0  9994,2 51740  53.2169 115.2941 0001239  98.4076 261.7057 15.08840194 74095,6917.88,95.438,540.602,538.888,0.0
51740.0,STARLINK-3500,PAYLOAD,2023-06-16 20:23:12,15.08839521,0.0001211,53.2167,114.1056,98.552,261.5609,8.1894e-05,1.016e-05,0.0,0 STARLINK-3500,1 51740U 22016AC  23167.84944526  .00001016  00000-0  81894-4 0  9991,2 51740  53.2167 114.1056 0001211  98.5520 261.5609 15.08839521 73073,6917.882,95.438,540.585,538.909,0.0
51740.0,STARLINK-3500,PAYLOAD,2023-06-17 05:55:30,15.08847306,0.0001306,53.2167,112.3229,87.2906,272.8235,0.00011232,1.5e-05,0.0,0 STARLINK-3500,1 51740U 22016AC  23168.24687894  .00001500  00000-0  11232-3 0  9994,2 51740  53.2167 112.3229 0001306  87.2906 272.8235 15.08847306 74197,6917.858,95.437,540.627,538.82,0.0
51740.0,STARLINK-3500,PAYLOAD,2023-06-17 13:52:26,15.088353,0.000118,53.2167,110.8362,94.0387,266.074,1.3098e-05,-7.9e-07,0.0,0 STARLINK-3500,1 51740U 22016AC  23168.57808872 -.00000079  00000-0  13098-4 0  9995,2 51740  53.2167 110.8362 0001180  94.0387 266.0740 15.08835300 74240,6917.895,95.438,540.576,538.943,0.0
51740.0,STARLINK-3500,PAYLOAD,2023-06-17 20:13:59,15.08838383,0.0001584,53.2164,109.6473,90.6592,269.4582,-7.308e-05,-1.451e-05,0.0,0 STARLINK-3500,1 51740U 22016AC  23168.84305240 -.00001451  00000-0 -73080-4 0  9999,2 51740  53.2164 109.6473 0001584  90.6592 269.4582 15.08838383 73226,6917.885,95.438,540.846,538.655,0.0
51740.0,STARLINK-3500,PAYLOAD,2023-06-18 05:46:18,15.08836462,0.0001445,53.2168,107.8626,96.1023,264.0134,-9.2667e-05,-1.762e-05,0.0,0 STARLINK-3500,1 51740U 22016AC  23169.24049414 -.00001762  00000-0 -92667-4 0  9999,2 51740  53.2168 107.8626 0001445  96.1023 264.0134 15.08836462 73282,6917.891,95.438,540.756,538.757,0.0
